[{"OBJECT_NAME":"EUTELSAT 65 WEST A","OBJECT_ID":"2016-014A","EPOCH":"2026-04-27T04:35:38.533344","MEAN_MOTION":1.00272739,"ECCENTRICITY":0.00022457,"INCLINATION":0.06,"RA_OF_ASC_NODE":31.9051,"ARG_OF_PERICENTER":355.7712,"MEAN_ANOMALY":191.2229,"EPHEMERIS_TYPE":0,"CLASSIFICATION_TYPE":"U","NORAD_CAT_ID":41382,"ELEMENT_SET_NO":999,"REV_AT_EPOCH":3701,"BSTAR":0,"MEAN_MOTION_DOT":-2.87e-6,"MEAN_MOTION_DDOT":0},{"OBJECT_NAME":"EUTELSAT 117 WEST B","OBJECT_ID":"2016-038B","EPOCH":"2026-04-27T00:59:21.527232","MEAN_MOTION":1.0027203,"ECCENTRICITY":4.24e-6,"INCLINATION":0.0118,"RA_OF_ASC_NODE":96.1942,"ARG_OF_PERICENTER":27.7845,"MEAN_ANOMALY":348.9074,"EPHEMERIS_TYPE":0,"CLASSIFICATION_TYPE":"U","NORAD_CAT_ID":41589,"ELEMENT_SET_NO":999,"REV_AT_EPOCH":3615,"BSTAR":0,"MEAN_MOTION_DOT":-2.2e-7,"MEAN_MOTION_DDOT":0},{"OBJECT_NAME":"EUTELSAT 172B","OBJECT_ID":"2017-029B","EPOCH":"2026-04-27T07:09:58.616640","MEAN_MOTION":1.00271807,"ECCENTRICITY":1.114e-5,"INCLINATION":0.0182,"RA_OF_ASC_NODE":176.6875,"ARG_OF_PERICENTER":108.1163,"MEAN_ANOMALY":209.9642,"EPHEMERIS_TYPE":0,"CLASSIFICATION_TYPE":"U","NORAD_CAT_ID":42741,"ELEMENT_SET_NO":999,"REV_AT_EPOCH":3323,"BSTAR":0,"MEAN_MOTION_DOT":-1.6e-7,"MEAN_MOTION_DDOT":0},{"OBJECT_NAME":"EUTELSAT 7C","OBJECT_ID":"2019-034B","EPOCH":"2026-04-27T05:12:38.611584","MEAN_MOTION":1.00270958,"ECCENTRICITY":0.00033049,"INCLINATION":0.0749,"RA_OF_ASC_NODE":181.5953,"ARG_OF_PERICENTER":197.2432,"MEAN_ANOMALY":281.5275,"EPHEMERIS_TYPE":0,"CLASSIFICATION_TYPE":"U","NORAD_CAT_ID":44334,"ELEMENT_SET_NO":999,"REV_AT_EPOCH":632,"BSTAR":0,"MEAN_MOTION_DOT":3.8e-7,"MEAN_MOTION_DDOT":0},{"OBJECT_NAME":"EUTELSAT 5 WEST B","OBJECT_ID":"2019-067A","EPOCH":"2026-04-27T05:28:38.743680","MEAN_MOTION":1.00271585,"ECCENTRICITY":0.00031831,"INCLINATION":0.0693,"RA_OF_ASC_NODE":11.9053,"ARG_OF_PERICENTER":24.7405,"MEAN_ANOMALY":255.7273,"EPHEMERIS_TYPE":0,"CLASSIFICATION_TYPE":"U","NORAD_CAT_ID":44624,"ELEMENT_SET_NO":999,"REV_AT_EPOCH":2392,"BSTAR":0,"MEAN_MOTION_DOT":-5.2e-7,"MEAN_MOTION_DDOT":0},{"OBJECT_NAME":"EUTELSAT KONNECT","OBJECT_ID":"2020-005B","EPOCH":"2026-04-27T05:12:38.611584","MEAN_MOTION":1.00270858,"ECCENTRICITY":0.00019437,"INCLINATION":0.0709,"RA_OF_ASC_NODE":89.5586,"ARG_OF_PERICENTER":205.6818,"MEAN_ANOMALY":5.333,"EPHEMERIS_TYPE":0,"CLASSIFICATION_TYPE":"U","NORAD_CAT_ID":45027,"ELEMENT_SET_NO":999,"REV_AT_EPOCH":2382,"BSTAR":0,"MEAN_MOTION_DOT":3.9e-7,"MEAN_MOTION_DDOT":0},{"OBJECT_NAME":"EUTELSAT QUANTUM","OBJECT_ID":"2021-069B","EPOCH":"2026-04-27T04:48:38.757312","MEAN_MOTION":1.00272725,"ECCENTRICITY":0.00025275,"INCLINATION":0.007,"RA_OF_ASC_NODE":50.2325,"ARG_OF_PERICENTER":348.5903,"MEAN_ANOMALY":296.2278,"EPHEMERIS_TYPE":0,"CLASSIFICATION_TYPE":"U","NORAD_CAT_ID":49056,"ELEMENT_SET_NO":999,"REV_AT_EPOCH":1741,"BSTAR":0,"MEAN_MOTION_DOT":0,"MEAN_MOTION_DDOT":0},{"OBJECT_NAME":"EUTELSAT KONNECT VHTS","OBJECT_ID":"2022-110A","EPOCH":"2026-04-27T05:20:38.796864","MEAN_MOTION":1.00271827,"ECCENTRICITY":0.00029163,"INCLINATION":0.0617,"RA_OF_ASC_NODE":92.6218,"ARG_OF_PERICENTER":274.2747,"MEAN_ANOMALY":291.184,"EPHEMERIS_TYPE":0,"CLASSIFICATION_TYPE":"U","NORAD_CAT_ID":53765,"ELEMENT_SET_NO":999,"REV_AT_EPOCH":632,"BSTAR":0,"MEAN_MOTION_DOT":7.0e-8,"MEAN_MOTION_DDOT":0},{"OBJECT_NAME":"EUTELSAT HOTBIRD 13F","OBJECT_ID":"2022-134A","EPOCH":"2026-04-27T05:12:38.611584","MEAN_MOTION":1.0027167,"ECCENTRICITY":0.00019953,"INCLINATION":0.0486,"RA_OF_ASC_NODE":287.6857,"ARG_OF_PERICENTER":70.4149,"MEAN_ANOMALY":308.2678,"EPHEMERIS_TYPE":0,"CLASSIFICATION_TYPE":"U","NORAD_CAT_ID":54048,"ELEMENT_SET_NO":999,"REV_AT_EPOCH":1286,"BSTAR":0,"MEAN_MOTION_DOT":7.7e-7,"MEAN_MOTION_DDOT":0},{"OBJECT_NAME":"EUTELSAT HOTBIRD 13G","OBJECT_ID":"2022-146A","EPOCH":"2026-04-27T05:12:38.611584","MEAN_MOTION":1.00270945,"ECCENTRICITY":0.00020767,"INCLINATION":0.0379,"RA_OF_ASC_NODE":232.8647,"ARG_OF_PERICENTER":309.9333,"MEAN_ANOMALY":123.5676,"EPHEMERIS_TYPE":0,"CLASSIFICATION_TYPE":"U","NORAD_CAT_ID":54225,"ELEMENT_SET_NO":999,"REV_AT_EPOCH":695,"BSTAR":0,"MEAN_MOTION_DOT":7.7e-7,"MEAN_MOTION_DDOT":0},{"OBJECT_NAME":"EUTELSAT 10B","OBJECT_ID":"2022-157A","EPOCH":"2026-04-27T05:12:38.611584","MEAN_MOTION":1.00267948,"ECCENTRICITY":0.00014484,"INCLINATION":0.0604,"RA_OF_ASC_NODE":89.8609,"ARG_OF_PERICENTER":36.8125,"MEAN_ANOMALY":176.672,"EPHEMERIS_TYPE":0,"CLASSIFICATION_TYPE":"U","NORAD_CAT_ID":54259,"ELEMENT_SET_NO":999,"REV_AT_EPOCH":1251,"BSTAR":0,"MEAN_MOTION_DOT":5.8e-7,"MEAN_MOTION_DDOT":0},{"OBJECT_NAME":"EUTELSAT 36D","OBJECT_ID":"2024-059A","EPOCH":"2026-04-27T04:56:38.684256","MEAN_MOTION":1.00271602,"ECCENTRICITY":1.378e-5,"INCLINATION":0.0134,"RA_OF_ASC_NODE":252.895,"ARG_OF_PERICENTER":303.8907,"MEAN_ANOMALY":128.4188,"EPHEMERIS_TYPE":0,"CLASSIFICATION_TYPE":"U","NORAD_CAT_ID":59346,"ELEMENT_SET_NO":999,"REV_AT_EPOCH":764,"BSTAR":0,"MEAN_MOTION_DOT":1.46e-6,"MEAN_MOTION_DDOT":0}]
