EUTELSAT 65 WEST A      
1 41382U 16014A   26117.19141821 -.00000287  00000+0  00000+0 0  9990
2 41382   0.0600  31.9051 0002245 355.7712 191.2229  1.00272739 37016
EUTELSAT 117 WEST B     
1 41589U 16038B   26117.04122138 -.00000022  00000+0  00000+0 0  9996
2 41589   0.0118  96.1942 0000042  27.7845 348.9074  1.00272030 36154
EUTELSAT 172B           
1 42741U 17029B   26117.29859510 -.00000016  00000+0  00000+0 0  9999
2 42741   0.0182 176.6875 0000111 108.1163 209.9642  1.00271807 33233
EUTELSAT 7C             
1 44334U 19034B   26117.21711356  .00000038  00000+0  00000+0 0  9997
2 44334   0.0749 181.5953 0003304 197.2432 281.5275  1.00270958  6323
EUTELSAT 5 WEST B       
1 44624U 19067A   26117.22822620 -.00000052  00000+0  00000+0 0  9990
2 44624   0.0693  11.9053 0003183  24.7405 255.7273  1.00271585 23922
EUTELSAT KONNECT        
1 45027U 20005B   26117.21711356  .00000039  00000+0  00000+0 0  9998
2 45027   0.0709  89.5586 0001943 205.6818   5.3330  1.00270858 23824
EUTELSAT QUANTUM        
1 49056U 21069B   26117.20044858  .00000000  00000+0  00000+0 0  9998
2 49056   0.0070  50.2325 0002527 348.5903 296.2278  1.00272725 17413
EUTELSAT KONNECT VHTS   
1 53765U 22110A   26117.22267126  .00000007  00000+0  00000+0 0  9992
2 53765   0.0617  92.6218 0002916 274.2747 291.1840  1.00271827  6325
EUTELSAT HOTBIRD 13F    
1 54048U 22134A   26117.21711356  .00000077  00000+0  00000+0 0  9998
2 54048   0.0486 287.6857 0001995  70.4149 308.2678  1.00271670 12868
EUTELSAT HOTBIRD 13G    
1 54225U 22146A   26117.21711356  .00000077  00000+0  00000+0 0  9998
2 54225   0.0379 232.8647 0002076 309.9333 123.5676  1.00270945  6954
EUTELSAT 10B            
1 54259U 22157A   26117.21711356  .00000058  00000+0  00000+0 0  9996
2 54259   0.0604  89.8609 0001448  36.8125 176.6720  1.00267948 12514
EUTELSAT 36D            
1 59346U 24059A   26117.20600329  .00000146  00000+0  00000+0 0  9995
2 59346   0.0134 252.8950 0000137 303.8907 128.4188  1.00271602  7647
